NORAD_CAT_ID,OBJECT_NAME,OBJECT_TYPE,EPOCH,MEAN_MOTION,ECCENTRICITY,INCLINATION,RA_OF_ASC_NODE,ARG_OF_PERICENTER,MEAN_ANOMALY,BSTAR,MEAN_MOTION_DOT,MEAN_MOTION_DDOT,TLE_LINE0,TLE_LINE1,TLE_LINE2,SEMIMAJOR_AXIS,PERIOD,APOGEE,PERIGEE,DECAYED
51782.0,STARLINK-3616,PAYLOAD,2023-10-24 09:17:57,15.08848604,0.000169,53.2165,282.5985,83.6049,276.5136,0.00033577,5.061e-05,0.0,0 STARLINK-3616,1 51782U 22017Q   23297.38746707  .00005061  00000-0  33577-3 0  9990,2 51782  53.2165 282.5985 0001690  83.6049 276.5136 15.08848604 92984,6917.854,95.437,540.888,538.55,0.0
51782.0,STARLINK-3616,PAYLOAD,2023-10-25 09:08:44,15.08843117,0.0001679,53.2174,278.1399,87.463,272.6554,0.00015938,2.25e-05,0.0,0 STARLINK-3616,1 51782U 22017Q   23298.38106784  .00002250  00000-0  15938-3 0  9994,2 51782  53.2174 278.1399 0001679  87.4630 272.6554 15.08843117 93132,6917.871,95.437,540.897,538.574,0.0
51782.0,STARLINK-3616,PAYLOAD,2023-10-26 04:13:22,15.08839105,0.0001781,53.2177,274.5712,93.2815,266.8381,-1.8288e-05,-5.79e-06,0.0,0 STARLINK-3616,1 51782U 22017Q   23299.17595078 -.00000579  00000-0 -18288-4 0  9996,2 51782  53.2177 274.5712 0001781  93.2815 266.8381 15.08839105 93256,6917.883,95.438,540.98,538.516,0.0
51782.0,STARLINK-3616,PAYLOAD,2023-10-26 08:59:31,15.08844918,0.000166,53.216,273.6795,92.4747,267.6436,5.9011e-05,6.51e-06,0.0,0 STARLINK-3616,1 51782U 22017Q   23299.37466769  .00000651  00000-0  59011-4 0  9990,2 51782  53.2160 273.6795 0001660  92.4747 267.6436 15.08844918 91559,6917.865,95.437,540.879,538.582,0.0
51782.0,STARLINK-3616,PAYLOAD,2023-10-27 07:14:55,15.08851218,0.0001753,53.2167,269.5165,87.7082,272.4111,0.00030225,4.527e-05,0.0,0 STARLINK-3616,1 51782U 22017Q   23300.30202628  .00004527  00000-0  30225-3 0  9999,2 51782  53.2167 269.5165 0001753  87.7082 272.4111 15.08851218 93426,6917.846,95.437,540.924,538.498,0.0
51782.0,STARLINK-3616,PAYLOAD,2023-10-27 15:11:51,15.08839552,0.000177,53.2181,268.0289,83.0157,277.1037,9.6889e-05,1.254e-05,0.0,0 STARLINK-3616,1 51782U 22017Q   23300.63323066  .00001254  00000-0  96889-4 0  9998,2 51782  53.2181 268.0289 0001770  83.0157 277.1037 15.08839552 93475,6917.882,95.438,540.971,538.522,0.0
51782.0,STARLINK-3616,PAYLOAD,2023-10-27 23:08:47,15.08831676,0.0001832,53.2153,266.5425,84.5038,275.6163,-6.0897e-05,-1.257e-05,0.0,0 STARLINK-3616,1 51782U 22017Q   23300.96443619 -.00001257  00000-0 -60897-4 0  9996,2 51782  53.2153 266.5425 0001832  84.5038 275.6163 15.08831676 93520,6917.906,95.438,541.038,538.503,0.0
51782.0,STARLINK-3616,PAYLOAD,2023-10-28 05:30:19,15.0883885,0.0001591,53.2163,265.3536,85.0915,275.0259,9.405e-05,1.209e-05,0.0,0 STARLINK-3616,1 51782U 22017Q   23301.22939426  .00001209  00000-0  94050-4 0  9995,2 51782  53.2163 265.3536 0001591  85.0915 275.0259 15.08838850 91836,6917.884,95.438,540.85,538.648,0.0
51782.0,STARLINK-3616,PAYLOAD,2023-10-28 21:24:11,15.08846262,0.0001717,53.2161,262.3821,77.8988,282.2196,0.00035394,5.35e-05,0.0,0 STARLINK-3616,1 51782U 22017Q   23301.89179517  .00005350  00000-0  35394-3 0  9991,2 51782  53.2161 262.3821 0001717  77.8988 282.2196 15.08846262 93666,6917.861,95.437,540.914,538.538,0.0
51782.0,STARLINK-3616,PAYLOAD,2023-10-29 06:56:29,15.08871738,0.0001678,53.2165,260.5946,95.5766,264.5418,0.0013151,0.00020722,0.0,0 STARLINK-3616,1 51782U 22017Q   23302.28922934  .00020722  00000-0  13151-2 0  9990,2 51782  53.2165 260.5946 0001678  95.5766 264.5418 15.08871738 93728,6917.783,95.436,540.809,538.488,0.0
51782.0,STARLINK-3616,PAYLOAD,2023-10-29 21:14:58,15.08843468,0.0001553,53.2166,257.921,77.1418,282.9747,0.00024532,3.619e-05,0.0,0 STARLINK-3616,1 51782U 22017Q   23302.88539483  .00003619  00000-0  24532-3 0  9991,2 51782  53.2166 257.9210 0001553  77.1418 282.9747 15.08843468 93813,6917.87,95.437,540.809,538.66,0.0
51782.0,STARLINK-3616,PAYLOAD,2023-10-30 06:47:16,15.08850764,0.0001389,53.2168,256.1346,84.4949,275.6202,0.00071153,0.00011057,0.0,0 STARLINK-3616,1 51782U 22017Q   23303.28283346  .00011057  00000-0  71153-3 0  9996,2 51782  53.2168 256.1346 0001389  84.4949 275.6202 15.08850764 92140,6917.847,95.437,540.673,538.752,0.0
51782.0,STARLINK-3616,PAYLOAD,2023-10-31 03:27:18,15.08847234,0.0001317,53.2174,252.269,100.114,260.0,0.0013614,0.00021449,0.0,0 STARLINK-3616,1 51782U 22017Q   23304.14395856  .00021449  00000-0  13614-2 0  9995,2 51782  53.2174 252.2690 0001317 100.1140 260.0000 15.08847234 94005,6917.858,95.437,540.634,538.812,0.0
51782.0,STARLINK-3616,PAYLOAD,2023-10-31 20:56:32,15.08840412,0.0001449,53.2178,248.9982,100.6824,259.4331,0.0013398,0.00021099,0.0,0 STARLINK-3616,1 51782U 22017Q   23304.87260233  .00021099  00000-0  13398-2 0  9995,2 51782  53.2178 248.9982 0001449 100.6824 259.4331 15.08840412 94117,6917.879,95.438,540.747,538.742,0.0
51782.0,STARLINK-3616,PAYLOAD,2023-11-01 03:18:05,15.0884906,0.0001386,53.2187,247.8112,100.1817,259.9331,0.00072493,0.00011271,0.0,0 STARLINK-3616,1 51782U 22017Q   23305.13756077  .00011271  00000-0  72493-3 0  9994,2 51782  53.2187 247.8112 0001386 100.1817 259.9331 15.08849060 92422,6917.853,95.437,540.677,538.759,0.0
51782.0,STARLINK-3616,PAYLOAD,2023-11-01 20:47:19,15.08838223,0.0001339,53.2176,244.54,97.1623,262.9522,9.3056e-05,1.193e-05,0.0,0 STARLINK-3616,1 51782U 22017Q   23305.86620119  .00001193  00000-0  93056-4 0  9992,2 51782  53.2176 244.5400 0001339  97.1623 262.9522 15.08838223 94261,6917.886,95.438,540.677,538.825,0.0
51782.0,STARLINK-3616,PAYLOAD,2023-11-02 12:41:10,15.08849152,0.0001262,53.217,241.5654,80.2971,279.8164,0.00024847,3.67e-05,0.0,0 STARLINK-3616,1 51782U 22017Q   23306.52859690  .00003670  00000-0  24847-3 0  9997,2 51782  53.2170 241.5654 0001262  80.2971 279.8164 15.08849152 92638,6917.852,95.437,540.59,538.844,0.0
51782.0,STARLINK-3616,PAYLOAD,2023-11-02 19:02:43,15.08843407,0.0001887,53.2174,240.3767,89.3164,270.8044,8.3009e-05,1.033e-05,0.0,0 STARLINK-3616,1 51782U 22017Q   23306.79355962  .00001033  00000-0  83009-4 0  9996,2 51782  53.2174 240.3767 0001887  89.3164 270.8044 15.08843407 92670,6917.87,95.437,541.04,538.43,0.0
51782.0,STARLINK-3616,PAYLOAD,2023-11-03 04:35:02,15.08844658,0.0001675,53.2189,238.5927,86.2116,273.9067,0.00012717,1.737e-05,0.0,0 STARLINK-3616,1 51782U 22017Q   23307.19099917  .00001737  00000-0  12717-3 0  9994,2 51782  53.2189 238.5927 0001675  86.2116 273.9067 15.08844658 94468,6917.866,95.437,540.89,538.572,0.0
51782.0,STARLINK-3616,PAYLOAD,2023-11-03 06:10:25,15.08846127,0.0001728,53.218,238.2942,83.0377,277.0812,0.00016129,2.28e-05,0.0,0 STARLINK-3616,1 51782U 22017Q   23307.25723807  .00002280  00000-0  16129-3 0  9998,2 51782  53.2180 238.2942 0001728  83.0377 277.0812 15.08846127 92741,6917.862,95.437,540.922,538.531,0.0
51782.0,STARLINK-3616,PAYLOAD,2023-11-04 12:22:45,15.08843138,0.0002042,53.2172,232.644,78.2003,281.9218,0.00010984,1.46e-05,0.0,0 STARLINK-3616,1 51782U 22017Q   23308.51579955  .00001460  00000-0  10984-3 0  9993,2 51782  53.2172 232.6440 0002042  78.2003 281.9218 15.08843138 92939,6917.871,95.437,541.148,538.323,0.0
51782.0,STARLINK-3616,PAYLOAD,2023-11-05 12:13:31,15.08853374,0.0001434,53.2171,228.1826,92.4117,267.7039,0.00030881,4.632e-05,0.0,0 STARLINK-3616,1 51782U 22017Q   23309.50939344  .00004632  00000-0  30881-3 0  9997,2 51782  53.2171 228.1826 0001434  92.4117 267.7039 15.08853374 93087,6917.84,95.437,540.697,538.712,0.0
51782.0,STARLINK-3616,PAYLOAD,2023-11-06 00:56:35,15.08877714,9.93e-05,53.2169,225.8036,110.416,249.6938,0.00059179,9.153e-05,0.0,0 STARLINK-3616,1 51782U 22017Q   23310.03929752  .00009153  00000-0  59179-3 0  9993,2 51782  53.2169 225.8036 0000993 110.4160 249.6938 15.08877714 94890,6917.765,95.435,540.317,538.943,0.0
51782.0,STARLINK-3616,PAYLOAD,2023-11-06 04:07:20,15.08910399,0.0001547,53.2173,225.2097,99.4291,260.6876,0.0013955,0.00022034,0.0,0 STARLINK-3616,1 51782U 22017Q   23310.17176582  .00022034  00000-0  13955-2 0  9997,2 51782  53.2173 225.2097 0001547  99.4291 260.6876 15.08910399 94917,6917.665,95.433,540.6,538.46,0.0
51782.0,STARLINK-3616,PAYLOAD,2023-11-06 12:04:18,15.08839378,0.0002535,53.2171,223.7238,84.007,276.1211,-0.00025431,-4.334e-05,0.0,0 STARLINK-3616,1 51782U 22017Q   23310.50298904 -.00004334  00000-0 -25431-3 0  9995,2 51782  53.2171 223.7238 0002535  84.0070 276.1211 15.08839378 93234,6917.882,95.438,541.501,537.994,0.0
51782.0,STARLINK-3616,PAYLOAD,2023-11-06 21:36:38,15.08779785,0.0001451,53.2177,221.9402,92.7069,267.409,-0.00144,-0.00023095,0.0,0 STARLINK-3616,1 51782U 22017Q   23310.90045044 -.00023095  00000-0 -14400-2 0  9992,2 51782  53.2177 221.9402 0001451  92.7069 267.4090 15.08779785 93292,6918.064,95.441,540.933,538.926,0.0
51782.0,STARLINK-3616,PAYLOAD,2023-11-07 03:58:12,15.08782596,0.0001969,53.2171,220.747,106.831,253.2899,-0.0011463,-0.00018457,0.0,0 STARLINK-3616,1 51782U 22017Q   23311.16541849 -.00018457  00000-0 -11463-2 0  9997,2 51782  53.2171 220.7470 0001969 106.8310 253.2899 15.08782596 95069,6918.056,95.441,541.283,538.559,0.0
51782.0,STARLINK-3616,PAYLOAD,2023-11-08 03:48:59,15.08855196,0.0001458,53.2176,216.2909,106.8228,253.2924,0.0018123,0.00028685,0.0,0 STARLINK-3616,1 51782U 22017Q   23312.15901821  .00028685  00000-0  18123-2 0  9999,2 51782  53.2176 216.2909 0001458 106.8228 253.2924 15.08855196 95215,6917.834,95.437,540.708,538.69,0.0
51782.0,STARLINK-3616,PAYLOAD,2023-11-08 21:18:11,15.08892015,0.0001441,53.2176,213.0202,100.6438,259.4716,0.00070225,0.00010922,0.0,0 STARLINK-3616,1 51782U 22017Q   23312.88762995  .00010922  00000-0  70225-3 0  9993,2 51782  53.2176 213.0202 0001441 100.6438 259.4716 15.08892015 93590,6917.721,95.434,540.583,538.59,0.0
51782.0,STARLINK-3616,PAYLOAD,2023-11-09 00:28:58,15.08828082,0.0001385,53.2166,212.4216,84.1505,275.9645,-0.00046087,-7.613e-05,0.0,0 STARLINK-3616,1 51782U 22017Q   23313.02012336 -.00007613  00000-0 -46087-3 0  9991,2 51782  53.2166 212.4216 0001385  84.1505 275.9645 15.08828082 95347,6917.917,95.438,540.74,538.824,0.0
